STARLINK-2160
1 27746C 21017AA  21325.14600183  .00004983  00000-0  33384-3 0  3256
2 27746  53.0553  57.5635 0000949  74.0067 161.9804 15.06399220    15
